IRIDIUM 166             
1 43570U 18061B   23331.83877052  .00000638  00000+0  22076-3 0  9993
2 43570  86.3961  86.3968 0002270  96.9352 263.2102 14.34223059279769
IRIDIUM 158             
1 43571U 18061C   23331.73728124  .00000635  00000+0  21950-3 0  9995
2 43571  86.3961  86.4481 0002278  86.4134 273.7322 14.34222966279712
IRIDIUM 165             
1 43572U 18061D   23331.76267845  .00000627  00000+0  21680-3 0  9998
2 43572  86.3963  86.4664 0002292  87.9503 272.1955 14.34220432279744
IRIDIUM 155             
1 43573U 18061E   23331.86412852  .00000630  00000+0  21797-3 0  9993
2 43573  86.3959  86.3388 0002030 101.6168 258.5255 14.34228052279728
IRIDIUM 154             
1 43574U 18061F   23331.84511039  .00000609  00000+0  21025-3 0  9999
2 43574  86.3970  86.4345 0001843  95.7194 264.4212 14.34210667279776
IRIDIUM 163             
1 43575U 18061G   23331.75630539  .00000632  00000+0  21867-3 0  9997
2 43575  86.3961  86.4164 0001935  89.3133 270.8284 14.34225651279735
IRIDIUM 156             
1 43576U 18061H   23331.87048550  .00000629  00000+0  21748-3 0  9991
2 43576  86.3960  86.3746 0002302  95.7197 264.4262 14.34226607279748
IRIDIUM 164             
1 43577U 18061J   23331.85145212  .00000620  00000+0  21436-3 0  9998
2 43577  86.3963  86.4085 0002214  92.2740 267.8710 14.34223742279783
